CCSDS_OMM_VERS,COMMENT,CREATION_DATE,ORIGINATOR,OBJECT_NAME,OBJECT_ID,CENTER_NAME,REF_FRAME,TIME_SYSTEM,MEAN_ELEMENT_THEORY,EPOCH,MEAN_MOTION,ECCENTRICITY,INCLINATION,RA_OF_ASC_NODE,ARG_OF_PERICENTER,MEAN_ANOMALY,EPHEMERIS_TYPE,CLASSIFICATION_TYPE,NORAD_CAT_ID,ELEMENT_SET_NO,REV_AT_EPOCH,BSTAR,MEAN_MOTION_DOT,MEAN_MOTION_DDOT,SEMIMAJOR_AXIS,PERIOD,APOAPSIS,PERIAPSIS,OBJECT_TYPE,RCS_SIZE,COUNTRY_CODE,LAUNCH_DATE,SITE,DECAY_DATE,FILE,GP_ID,TLE_LINE0,TLE_LINE1,TLE_LINE2
2,GENERATED VIA SPACE-TRACK.ORG API,2019-12-17T05:09:57,18 SPCS,LEASAT 5,1990-002B,EARTH,TEME,UTC,SGP4,2019-12-16T14:54:45.854784,0.99590568,0.000769,11.7478,4.8368,351.4412,200.5645,0,U,20410,999,9477,0.0,2e-07,0,42356.789,1445.92,36011.226,35946.082,PAYLOAD,LARGE,US,1990-01-09,AFETR,,2667863,144936572,0 LEASAT 5,1 20410U 90002B   19350.62136406 +.00000020 +00000-0 +00000-0 0  9996,2 20410 011.7478 004.8368 0007690 351.4412 200.5645 00.99590568094778
2,GENERATED VIA SPACE-TRACK.ORG API,2019-12-18T04:21:18,18 SPCS,LEASAT 5,1990-002B,EARTH,TEME,UTC,SGP4,2019-12-17T14:09:05.043744,0.9959068,0.0007714,11.7476,4.8303,351.337,187.8334,0,U,20410,999,9478,0.0,2.8e-07,0,42356.757,1445.918,36011.296,35945.948,PAYLOAD,LARGE,US,1990-01-09,AFETR,,2668414,145006444,0 LEASAT 5,1 20410U 90002B   19351.58964171 +.00000028 +00000-0 +00000-0 0  9998,2 20410 011.7476 004.8303 0007714 351.3370 187.8334 00.99590680094782
2,GENERATED VIA SPACE-TRACK.ORG API,2019-12-18T06:20:17,18 SPCS,LEASAT 5,1990-002B,EARTH,TEME,UTC,SGP4,2019-12-18T03:41:28.020192,0.99590738,0.0007717,11.7475,4.8265,351.2427,30.1983,0,U,20410,999,9478,0.0,3.3e-07,0,42356.741,1445.917,36011.293,35945.919,PAYLOAD,LARGE,US,1990-01-09,AFETR,,2668452,145021738,0 LEASAT 5,1 20410U 90002B   19352.15379653  .00000033  00000-0  00000+0 0  9992,2 20410  11.7475   4.8265 0007717 351.2427  30.1983  0.99590738 94787
2,GENERATED VIA SPACE-TRACK.ORG API,2019-12-19T04:45:16,18 SPCS,LEASAT 5,1990-002B,EARTH,TEME,UTC,SGP4,2019-12-18T15:07:45.732288,0.99590804,0.0007744,11.7474,4.8233,351.2435,201.0748,0,U,20410,999,9479,0.0,3.7e-07,0,42356.722,1445.916,36011.388,35945.786,PAYLOAD,LARGE,US,1990-01-09,AFETR,,2669174,145081092,0 LEASAT 5,1 20410U 90002B   19352.63039042 +.00000037 +00000-0 +00000-0 0  9995,2 20410 011.7474 004.8233 0007744 351.2435 201.0748 00.99590804094793
2,GENERATED VIA SPACE-TRACK.ORG API,2019-12-20T05:18:04,18 SPCS,LEASAT 5,1990-002B,EARTH,TEME,UTC,SGP4,2019-12-19T15:14:13.122240,0.99590973,0.0007773,11.7472,4.8166,351.141,201.3239,0,U,20410,999,9480,0.0,4.5e-07,0,42356.674,1445.914,36011.463,35945.615,PAYLOAD,LARGE,US,1990-01-09,AFETR,,2669774,145133539,0 LEASAT 5,1 20410U 90002B   19353.63487410 +.00000045 +00000-0 +00000-0 0  9991,2 20410 011.7472 004.8166 0007773 351.1410 201.3239 00.99590973094807
2,GENERATED VIA SPACE-TRACK.ORG API,2019-12-20T14:20:16,18 SPCS,LEASAT 5,1990-002B,EARTH,TEME,UTC,SGP4,2019-12-20T12:46:46.600320,0.99591123,0.0007801,11.747,4.8106,351.0158,163.2768,0,U,20410,999,9480,0.0,5.2e-07,0,42356.632,1445.912,36011.539,35945.454,PAYLOAD,LARGE,US,1990-01-09,AFETR,,2669988,145171686,0 LEASAT 5,1 20410U 90002B   19354.53248380  .00000052  00000-0  00000+0 0  9999,2 20410  11.7470   4.8106 0007801 351.0158 163.2768  0.99591123 94800
2,GENERATED VIA SPACE-TRACK.ORG API,2019-12-21T05:52:02,18 SPCS,LEASAT 5,1990-002B,EARTH,TEME,UTC,SGP4,2019-12-20T15:20:43.406592,0.99591163,0.0007799,11.747,4.8098,351.043,201.5807,0,U,20410,999,9481,0.0,5.3e-07,0,42356.62,1445.911,36011.519,35945.451,PAYLOAD,LARGE,US,1990-01-09,AFETR,,2670333,145203381,0 LEASAT 5,1 20410U 90002B   19354.63939128 +.00000053 +00000-0 +00000-0 0  9999,2 20410 011.7470 004.8098 0007799 351.0430 201.5807 00.99591163094814
2,GENERATED VIA SPACE-TRACK.ORG API,2019-12-22T05:26:48,18 SPCS,LEASAT 5,1990-002B,EARTH,TEME,UTC,SGP4,2019-12-21T15:27:08.697888,0.99591396,0.0007835,11.7468,4.8031,350.9564,201.8068,0,U,20410,999,9482,0.0,6e-07,0,42356.554,1445.908,36011.606,35945.233,PAYLOAD,LARGE,US,1990-01-09,AFETR,,2670938,145255535,0 LEASAT 5,1 20410U 90002B   19355.64385067 +.00000060 +00000-0 +00000-0 0  9996,2 20410 011.7468 004.8031 0007835 350.9564 201.8068 00.99591396094826
2,GENERATED VIA SPACE-TRACK.ORG API,2019-12-22T22:20:16,18 SPCS,LEASAT 5,1990-002B,EARTH,TEME,UTC,SGP4,2019-12-22T15:33:37.514304,0.99591643,0.0007883,11.7466,4.7964,350.9055,202.0119,0,U,20410,999,9482,0.0,6.6e-07,0,42356.484,1445.904,36011.739,35944.96,PAYLOAD,LARGE,US,1990-01-09,AFETR,,2671359,145298733,0 LEASAT 5,1 20410U 90002B   19356.64835086  .00000066  00000-0  00000+0 0  9993,2 20410  11.7466   4.7964 0007883 350.9055 202.0119  0.99591643 94821
2,GENERATED VIA SPACE-TRACK.ORG API,2019-12-24T03:42:42,18 SPCS,LEASAT 5,1990-002B,EARTH,TEME,UTC,SGP4,2019-12-23T13:56:57.966144,0.995919,0.0007926,11.7464,4.7902,350.8617,176.5306,0,U,20410,999,9484,0.0,7.1e-07,0,42356.411,1445.9,36011.848,35944.705,PAYLOAD,LARGE,US,1990-01-09,AFETR,,2672091,145377780,0 LEASAT 5,1 20410U 90002B   19357.58122646 +.00000071 +00000-0 +00000-0 0  9995,2 20410 011.7464 004.7902 0007926 350.8617 176.5306 00.99591900094843
2,GENERATED VIA SPACE-TRACK.ORG API,2019-12-25T03:20:42,18 SPCS,LEASAT 5,1990-002B,EARTH,TEME,UTC,SGP4,2019-12-24T14:03:27.000288,0.9959219,0.000797,11.7461,4.7835,350.8673,176.6817,0,U,20410,999,9485,0.0,7.6e-07,0,42356.329,1445.896,36011.952,35944.436,PAYLOAD,LARGE,US,1990-01-09,AFETR,,2672635,145428694,0 LEASAT 5,1 20410U 90002B   19358.58572917 +.00000076 +00000-0 +00000-0 0  9991,2 20410 011.7461 004.7835 0007970 350.8673 176.6817 00.99592190094857
2,GENERATED VIA SPACE-TRACK.ORG API,2019-12-25T14:20:17,18 SPCS,LEASAT 5,1990-002B,EARTH,TEME,UTC,SGP4,2019-12-25T04:41:01.625280,0.99592382,0.0008001,11.746,4.7795,350.9002,35.1551,0,U,20410,999,9485,0.0,7.8e-07,0,42356.275,1445.893,36012.029,35944.25,PAYLOAD,LARGE,US,1990-01-09,AFETR,,2672790,145446129,0 LEASAT 5,1 20410U 90002B   19359.19515770  .00000078  00000-0  00000+0 0  9994,2 20410  11.7460   4.7795 0008001 350.9002  35.1551  0.99592382 94851
2,GENERATED VIA SPACE-TRACK.ORG API,2019-12-26T04:40:13,18 SPCS,LEASAT 5,1990-002B,EARTH,TEME,UTC,SGP4,2019-12-25T16:11:45.831264,0.99592533,0.000803,11.7459,4.7763,350.9234,207.1174,0,U,20410,999,9486,0.0,8e-07,0,42356.232,1445.891,36012.109,35944.085,PAYLOAD,LARGE,US,1990-01-09,AFETR,,2673195,145480147,0 LEASAT 5,1 20410U 90002B   19359.67483601 +.00000080 +00000-0 +00000-0 0  9998,2 20410 011.7459 004.7763 0008030 350.9234 207.1174 00.99592533094864
2,GENERATED VIA SPACE-TRACK.ORG API,2019-12-27T18:01:19,18 SPCS,LEASAT 5,1990-002B,EARTH,TEME,UTC,SGP4,2019-12-26T15:24:54.841824,0.99592889,0.0008075,11.7457,4.7698,351.0038,193.9175,0,U,20410,999,9487,0.0,8.2e-07,0,42356.131,1445.886,36012.199,35943.793,PAYLOAD,LARGE,US,1990-01-09,AFETR,,2674120,145578614,0 LEASAT 5,1 20410U 90002B   19360.64230141 +.00000082 +00000-0 +00000-0 0  9998,2 20410 011.7457 004.7698 0008075 351.0038 193.9175 00.99592889094870
2,GENERATED VIA SPACE-TRACK.ORG API,2019-12-27T14:20:16,18 SPCS,LEASAT 5,1990-002B,EARTH,TEME,UTC,SGP4,2019-12-27T10:53:52.245024,0.99593167,0.000811,11.7455,4.7644,351.1178,124.8615,0,U,20410,999,9487,0.0,8.4e-07,0,42356.052,1445.882,36012.268,35943.566,PAYLOAD,LARGE,US,1990-01-09,AFETR,,2673959,145569926,0 LEASAT 5,1 20410U 90002B   19361.45407691  .00000084  00000-0  00000+0 0  9995,2 20410  11.7455   4.7644 0008110 351.1178 124.8615  0.99593167 94877
2,GENERATED VIA SPACE-TRACK.ORG API,2019-12-28T03:53:41,18 SPCS,LEASAT 5,1990-002B,EARTH,TEME,UTC,SGP4,2019-12-27T16:06:05.784192,0.99593257,0.0008117,11.7454,4.763,351.1254,202.5954,0,U,20410,999,9488,0.0,8.4e-07,0,42356.027,1445.881,36012.272,35943.511,PAYLOAD,LARGE,US,1990-01-09,AFETR,,2674323,145602006,0 LEASAT 5,1 20410U 90002B   19361.67090028 +.00000084 +00000-0 +00000-0 0  9992,2 20410 011.7454 004.7630 0008117 351.1254 202.5954 00.99593257094884
2,GENERATED VIA SPACE-TRACK.ORG API,2019-12-29T04:33:10,18 SPCS,LEASAT 5,1990-002B,EARTH,TEME,UTC,SGP4,2019-12-28T09:12:17.919936,0.99593517,0.0008149,11.7453,4.7582,351.2761,97.9593,0,U,20410,999,9489,0.0,8.5e-07,0,42355.953,1445.877,36012.334,35943.302,PAYLOAD,LARGE,US,1990-01-09,AFETR,,2674900,145673244,0 LEASAT 5,1 20410U 90002B   19362.38354074 +.00000085 +00000-0 +00000-0 0  9996,2 20410 011.7453 004.7582 0008149 351.2761 097.9593 00.99593517094893
2,GENERATED VIA SPACE-TRACK.ORG API,2019-12-29T22:20:16,18 SPCS,LEASAT 5,1990-002B,EARTH,TEME,UTC,SGP4,2019-12-29T16:19:04.236096,0.99594026,0.0008205,11.745,4.7497,351.4929,202.5532,0,U,20410,999,9489,0.0,8.4e-07,0,42355.809,1445.869,36012.427,35942.921,PAYLOAD,LARGE,US,1990-01-09,AFETR,,2675273,145735532,0 LEASAT 5,1 20410U 90002B   19363.67991014  .00000084  00000-0  00000+0 0  9998,2 20410  11.7450   4.7497 0008205 351.4929 202.5532  0.99594026 94899
2,GENERATED VIA SPACE-TRACK.ORG API,2019-12-31T04:05:06,18 SPCS,LEASAT 5,1990-002B,EARTH,TEME,UTC,SGP4,2019-12-30T16:09:18.507168,0.99594446,0.0008243,11.7448,4.7431,351.7155,198.45,0,U,20410,999,9491,0.0,8.3e-07,0,42355.69,1445.863,36012.468,35942.641,PAYLOAD,LARGE,US,1990-01-09,AFETR,,2676005,145834103,0 LEASAT 5,1 20410U 90002B   19364.67313087 +.00000083 +00000-0 +00000-0 0  9997,2 20410 011.7448 004.7431 0008243 351.7155 198.4500 00.99594446094917
2,GENERATED VIA SPACE-TRACK.ORG API,2019-12-31T22:20:17,18 SPCS,LEASAT 5,1990-002B,EARTH,TEME,UTC,SGP4,2019-12-31T16:31:59.958624,0.99594889,0.0008283,11.7445,4.7364,351.9661,202.4009,0,U,20410,999,9491,0.0,8e-07,0,42355.564,1445.857,36012.512,35942.346,PAYLOAD,LARGE,US,1990-01-09,AFETR,,2676249,145873439,0 LEASAT 5,1 20410U 90002B   19365.68888841  .00000080  00000-0  00000+0 0  9990,2 20410  11.7445   4.7364 0008283 351.9661 202.4009  0.99594889 94918
